{"addresses":[{"id":1,"name":"Douglas Dickens","streetAddress":"11730 Sipes Isle","city":"Madison","state":"Nevada","zipCode":"12651-8353","phone":"1-574-908-6265 x759"},{"id":2,"name":"Joana Hoppe","streetAddress":"83935 Jose Streets","city":"McLean","state":"Florida","zipCode":"12835-1778","phone":"(904) 734-7498"},{"id":3,"name":"Viola Flatley","streetAddress":"752 Rau Village","city":"Port Robbieside","state":"Louisiana","zipCode":"82141","phone":"(931) 252-8901 x76857"},{"id":4,"name":"Alysa Carter","streetAddress":"078 Nolan Crossing","city":"Antonemouth","state":"South Carolina","zipCode":"51093-3619","phone":"401.307.1343 x229"},{"id":5,"name":"Ned Huels","streetAddress":"08503 Graham Ridges","city":"Luisstad","state":"North Dakota","zipCode":"48075-5971","phone":"252.550.8645 x2970"},{"id":6,"name":"Buster Lemke","streetAddress":"4442 Hyatt Station","city":"South Mireya","state":"Delaware","zipCode":"65252-5470","phone":"(630) 793-5987"},{"id":7,"name":"Avery Wyman","streetAddress":"3457 Wilkinson Lakes","city":"North Biankaville","state":"Washington","zipCode":"69169","phone":"456.300.6312 x6278"},{"id":8,"name":"Lucio Bayer","streetAddress":"9959 Roberto Ridges","city":"Manteberg","state":"Utah","zipCode":"91525","phone":"(808) 470-7096 x652"},{"id":9,"name":"Jaylon Koss","streetAddress":"9366 Zieme Throughway","city":"Williamsonstad","state":"Missouri","zipCode":"00887","phone":"273-631-3528 x4849"},{"id":10,"name":"Aaron Schamberger","streetAddress":"197 Marcia Trafficway","city":"Bernhardchester","state":"North Carolina","zipCode":"32709-5825","phone":"(820) 409-6422 x24444"},{"id":11,"name":"Jorge Emmerich","streetAddress":"003 Leffler Fork","city":"East Colt","state":"Ohio","zipCode":"76013","phone":"219-937-8046"},{"id":12,"name":"Janae Shields","streetAddress":"06792 Johnson Track","city":"North Rhoda","state":"New Jersey","zipCode":"23416","phone":"1-687-292-8012 x6723"},{"id":13,"name":"Daren Lynch","streetAddress":"52508 Johnson Plaza","city":"Bonitashire","state":"Utah","zipCode":"68349-2770","phone":"(797) 309-2971 x7508"},{"id":14,"name":"Jovani Buckridge","streetAddress":"586 Lempi Gateway","city":"East Eddmouth","state":"Vermont","zipCode":"15489","phone":"904.604.9625 x32831"},{"id":15,"name":"Leonel Spencer","streetAddress":"11262 Minerva Run","city":"Kosston","state":"South Carolina","zipCode":"71102","phone":"(437) 361-4533 x43805"}]}
